NORAD_CAT_ID,OBJECT_NAME,OBJECT_TYPE,EPOCH,MEAN_MOTION,ECCENTRICITY,INCLINATION,RA_OF_ASC_NODE,ARG_OF_PERICENTER,MEAN_ANOMALY,BSTAR,MEAN_MOTION_DOT,MEAN_MOTION_DDOT,TLE_LINE0,TLE_LINE1,TLE_LINE2,SEMIMAJOR_AXIS,PERIOD,APOGEE,PERIGEE,DECAYED
53251.0,STARLINK-4129,PAYLOAD,2022-08-08 12:47:03,15.73257295,0.0001529,53.2199,329.1119,338.8853,21.2104,0.00035653,0.00049837,0.0,0 STARLINK-4129,1 53251U 22086K   22220.53267367  .00049837  00000-0  35653-3 0  9997,2 53251  53.2199 329.1119 0001529 338.8853  21.2104 15.73257295  3175,6727.732,91.53,350.625,348.5680000000001,0.0
53251.0,STARLINK-4129,PAYLOAD,2022-08-08 20:00:01,15.73298395,0.0001774,53.2195,327.6257,350.7983,273.2752,-0.00075443,-0.0010562999999999,0.0,0 STARLINK-4129,1 53251U 22086K   22220.83335648 -.00105630  00000-0 -75443-3 0  9995,2 53251  53.2195 327.6257 0001774 350.7983 273.2752 15.73298395  3035,6727.615,91.527,350.673,348.286,0.0
53251.0,STARLINK-4129,PAYLOAD,2022-08-08 22:00:00,15.73300209,0.000175,53.2197,327.2128,354.1311,22.1307,-0.0010898,-0.00151502,0.0,0 STARLINK-4129,1 53251U 22086K   22220.91667824 -.00151502  00000-0 -10898-2 0  9999,2 53251  53.2197 327.2128 0001750 354.1311  22.1307 15.73300209  1300,6727.609,91.527,350.652,348.297,0.0
53251.0,STARLINK-4129,PAYLOAD,2022-08-09 14:00:01,15.7320815,0.0002,53.2201,323.9144,18.0557,176.0743,-0.00087113,-0.00121187,0.0,0 STARLINK-4129,1 53251U 22086K   22221.58334491 -.00121187  00000-0 -87113-3 0  9995,2 53251  53.2201 323.9144 0002000  18.0557 176.0743 15.73208150  1309,6727.871999999999,91.533,351.083,348.391,0.0
53251.0,STARLINK-4129,PAYLOAD,2022-08-09 22:00:00,15.73115304,0.0002063,53.2197,322.2646,23.82,259.1774,-3.5514e-05,-5.584e-05,0.0,0 STARLINK-4129,1 53251U 22086K   22221.91667824 -.00005584  00000-0 -35514-4 0  9992,2 53251  53.2197 322.2646 0002063  23.8200 259.1774 15.73115304  1305,6728.137,91.538,351.39,348.61400000000015,0.0
53251.0,STARLINK-4129,PAYLOAD,2022-08-10 06:00:00,15.7320244,0.0001876999999999,53.2175,320.6099,18.2517,353.4884,2.488e-05,2.873e-05,0.0,0 STARLINK-4129,1 53251U 22086K   22222.25001157  .00002873  00000-0  24880-4 0  9991,2 53251  53.2175 320.6099 0001877  18.2517 353.4884 15.73202440  3261,6727.888000000001,91.533,351.016,348.49,0.0
53251.0,STARLINK-4129,PAYLOAD,2022-08-10 14:00:01,15.73154503,0.0002150999999999,53.2198,318.9672,24.9054,75.8276,0.00021436,0.00029512,0.0,0 STARLINK-4129,1 53251U 22086K   22222.58334491  .00029512  00000-0  21436-3 0  9999,2 53251  53.2198 318.9672 0002151  24.9054  75.8276 15.73154503  1308,6728.025,91.536,351.337,348.4430000000001,0.0
53251.0,STARLINK-4129,PAYLOAD,2022-08-10 22:00:00,15.73220202,0.0002121999999999,53.2199,317.3171,22.5513,167.0753,-0.00012488,-0.00018126,0.0,0 STARLINK-4129,1 53251U 22086K   22222.91667824 -.00018126  00000-0 -12488-3 0  9993,2 53251  53.2199 317.3171 0002122  22.5513 167.0753 15.73220202  1302,6727.8380000000025,91.532,351.13,348.275,0.0
53251.0,STARLINK-4129,PAYLOAD,2022-08-11 06:00:02,15.73193834,0.0001994,53.2203,315.6664,23.3011,255.3303,1.0556e-05,8.599999999999999e-06,0.0,0 STARLINK-4129,1 53251U 22086K   22223.25002315  .00000860  00000-0  10556-4 0  9998,2 53251  53.2203 315.6664 0001994  23.3011 255.3303 15.73193834  3410,6727.913000000001,91.534,351.119,348.436,0.0
53251.0,STARLINK-4129,PAYLOAD,2022-08-11 14:00:01,15.73178048,0.0002287,53.2202,314.0194,20.6404,346.8433,0.00021717,0.0002993999999999,0.0,0 STARLINK-4129,1 53251U 22086K   22223.58334491  .00029940  00000-0  21717-3 0  9997,2 53251  53.2202 314.0194 0002287  20.6404 346.8433 15.73178048  1308,6727.958000000001,91.534,351.361,348.284,0.0
53251.0,STARLINK-4129,PAYLOAD,2022-08-12 04:00:00,15.73258276,0.0002164,53.2197,311.131,24.0142,49.1329,-7.1283e-05,-0.00010639,0.0,0 STARLINK-4129,1 53251U 22086K   22224.16667824 -.00010639  00000-0 -71283-4 0  9992,2 53251  53.2197 311.1310 0002164  24.0142  49.1329 15.73258276  3569,6727.729,91.53,351.05,348.13800000000015,0.0
53251.0,STARLINK-4129,PAYLOAD,2022-08-12 14:00:01,15.73257178,0.0002477,53.2196,309.0716,24.6576,249.7381,-0.00026625,-0.00037918,0.0,0 STARLINK-4129,1 53251U 22086K   22224.58334491 -.00037918  00000-0 -26625-3 0  9997,2 53251  53.2196 309.0716 0002477  24.6576 249.7381 15.73257178  1304,6727.732,91.53,351.264,347.931,0.0
53251.0,STARLINK-4129,PAYLOAD,2022-08-12 20:00:01,15.73258991,0.0002453,53.2193,307.8338,22.8726,228.3203,-0.00084139,-0.00117388,0.0,0 STARLINK-4129,1 53251U 22086K   22224.83335648 -.00117388  00000-0 -84139-3 0  9994,2 53251  53.2193 307.8338 0002453  22.8726 228.3203 15.73258991  3669,6727.727,91.53,351.242,347.94199999999995,0.0
53251.0,STARLINK-4129,PAYLOAD,2022-08-12 22:00:01,15.73232897,0.0002379999999999,53.2196,307.4209,23.5793,339.8601,-0.00064777,-0.00090699,0.0,0 STARLINK-4129,1 53251U 22086K   22224.91668981 -.00090699  00000-0 -64777-3 0  9993,2 53251  53.2196 307.4209 0002380  23.5793 339.8601 15.73232897  1302,6727.801,91.531,351.26800000000014,348.065,0.0
53251.0,STARLINK-4129,PAYLOAD,2022-08-13 04:00:00,15.73167559,0.0002320999999999,53.2196,306.1827,26.1128,313.9584,8.2883e-05,0.00011011,0.0,0 STARLINK-4129,1 53251U 22086K   22225.16667824  .00011011  00000-0  82883-4 0  9994,2 53251  53.2196 306.1827 0002321  26.1128 313.9584 15.73167559  3712,6727.988,91.535,351.414,348.291,0.0
53251.0,STARLINK-4129,PAYLOAD,2022-08-13 14:00:01,15.73117934,0.0002628,53.2197,304.1234,21.8685,159.32399999999996,0.00038439,0.00053486,0.0,0 STARLINK-4129,1 53251U 22086K   22225.58334491  .00053486  00000-0  38439-3 0  9990,2 53251  53.2197 304.1234 0002628  21.8685 159.3240 15.73117934  3783,6728.129,91.538,351.76199999999994,348.226,0.0
53251.0,STARLINK-4129,PAYLOAD,2022-08-13 22:00:00,15.731687,0.0002508999999999,53.2192,302.4729,22.4561,247.5859,1.393e-05,1.331e-05,0.0,0 STARLINK-4129,1 53251U 22086K   22225.91667824  .00001331  00000-0  13930-4 0  9998,2 53251  53.2192 302.4729 0002509  22.4561 247.5859 15.73168700  1305,6727.984,91.535,351.537,348.161,0.0
53251.0,STARLINK-4129,PAYLOAD,2022-08-14 14:00:01,15.73236918,0.0002688,53.2189,299.1757,21.6142,66.3085,-5.6689e-05,-8.584e-05,0.0,0 STARLINK-4129,1 53251U 22086K   22226.58334491 -.00008584  00000-0 -56689-4 0  9990,2 53251  53.2189 299.1757 0002688  21.6142  66.3085 15.73236918  1303,6727.79,91.531,351.463,347.846,0.0
53251.0,STARLINK-4129,PAYLOAD,2022-08-14 22:00:00,15.73223824,0.0002508,53.219,297.5245,18.0987,158.8098,-5.8739e-06,-1.447e-05,0.0,0 STARLINK-4129,1 53251U 22086K   22226.91667824 -.00001447  00000-0 -58739-5 0  9996,2 53251  53.2190 297.5245 0002508  18.0987 158.8098 15.73223824  3997,6727.8269999999975,91.532,351.38,348.005,0.0
53251.0,STARLINK-4129,PAYLOAD,2022-08-15 14:00:01,15.73202658,0.0002728999999999,53.2191,294.2270000000001,12.9952,341.7904,-0.00024851,-0.00035363,0.0,0 STARLINK-4129,1 53251U 22086K   22227.58334491 -.00035363  00000-0 -24851-3 0  9991,2 53251  53.2191 294.2270 0002729  12.9952 341.7904 15.73202658  4093,6727.888000000001,91.533,351.589,347.917,0.0
53251.0,STARLINK-4129,PAYLOAD,2022-08-15 22:00:00,15.7316046,0.0002552999999999,53.2188,292.5759,9.7433,73.9735,0.00020146,0.00027701,0.0,0 STARLINK-4129,1 53251U 22086K   22227.91667824  .00027701  00000-0  20146-3 0  9995,2 53251  53.2188 292.5759 0002553   9.7433  73.9735 15.73160460  1306,6728.0080000000025,91.535,351.591,348.155,0.0
53251.0,STARLINK-4129,PAYLOAD,2022-08-16 06:00:02,15.73197289,0.0002528,53.2188,290.9265,12.8378,159.8304,0.00020076,0.00027646,0.0,0 STARLINK-4129,1 53251U 22086K   22228.25002315  .00027646  00000-0  20076-3 0  9991,2 53251  53.2188 290.9265 0002528  12.8378 159.8304 15.73197289  4202,6727.903,91.533,351.469,348.06699999999995,0.0
53251.0,STARLINK-4129,PAYLOAD,2022-08-16 14:00:01,15.73214524,0.0002861,53.2186,289.2789,13.3071,248.2333,-1.6963e-06,-8.61e-06,0.0,0 STARLINK-4129,1 53251U 22086K   22228.58334491 -.00000861  00000-0 -16963-5 0  9994,2 53251  53.2186 289.2789 0002861  13.3071 248.2333 15.73214524  1303,6727.854,91.532,351.644,347.7940000000001,0.0
53251.0,STARLINK-4129,PAYLOAD,2022-08-16 22:00:00,15.73184243,0.0002723999999999,53.2187,287.6274,17.0956,333.412,0.0002263,0.00031239,0.0,0 STARLINK-4129,1 53251U 22086K   22228.91667824  .00031239  00000-0  22630-3 0  9997,2 53251  53.2187 287.6274 0002724  17.0956 333.4120 15.73184243  4304,6727.94,91.534,351.63800000000015,347.972,0.0
53251.0,STARLINK-4129,PAYLOAD,2022-08-17 14:00:01,15.731585399999998,0.000302,53.219,284.3302,14.0435,154.3331,0.00049,0.00068599,0.0,0 STARLINK-4129,1 53251U 22086K   22229.58334491  .00068599  00000-0  49000-3 0  9991,2 53251  53.2190 284.3302 0003020  14.0435 154.3331 15.73158540  4410,6728.013000000001,91.536,351.91,347.847,0.0
53251.0,STARLINK-4129,PAYLOAD,2022-08-18 14:00:01,15.73214808,0.0003174,53.2185,279.3819,19.5467,55.6764,0.00017252,0.00023678,0.0,0 STARLINK-4129,1 53251U 22086K   22230.58334491  .00023678  00000-0  17252-3 0  9996,2 53251  53.2185 279.3819 0003174  19.5467  55.6764 15.73214808  1304,6727.853,91.532,351.853,347.583,0.0
53251.0,STARLINK-4129,PAYLOAD,2022-08-18 22:00:00,15.73181262,0.0002907,53.2187,277.7304,17.1004,147.0947,0.0004248,0.0005938,0.0,0 STARLINK-4129,1 53251U 22086K   22230.91667824  .00059380  00000-0  42480-3 0  9992,2 53251  53.2187 277.7304 0002907  17.1004 147.0947 15.73181262  4625,6727.949000000001,91.534,351.769,347.858,0.0
53251.0,STARLINK-4129,PAYLOAD,2022-08-19 14:00:01,15.73132911,0.000316,53.2187,274.4334,11.3435,330.7526,0.00055334,0.00077546,0.0,0 STARLINK-4129,1 53251U 22086K   22231.58334491  .00077546  00000-0  55334-3 0  9993,2 53251  53.2187 274.4334 0003160  11.3435 330.7526 15.73132911  1301,6728.0859999999975,91.537,352.07800000000015,347.825,0.0
53251.0,STARLINK-4129,PAYLOAD,2022-08-19 22:00:00,15.73169157,0.0002959,53.2188,272.7822,12.42,58.5435,8.5348e-05,0.00011358,0.0,0 STARLINK-4129,1 53251U 22086K   22231.91667824  .00011358  00000-0  85348-4 0  9997,2 53251  53.2188 272.7822 0002959  12.4200  58.5435 15.73169157  4783,6727.983,91.535,351.839,347.857,0.0
